[{"OBJECT_ID":"1964-047A","OBJECT_NAME":"SYNCOM 3","NORAD_CAT_ID":"858","OBJECT_TYPE":"PAYLOAD","PERIOD":"1437.660","INCLINATION":"1.4031","APOGEE":"35839.429","PERIGEE":"35794.980","ECCENTRICITY":"0.0005267","MEAN_MOTION":"1.001627","TLE_LINE1":"1 00858U 64047A   16238.19434689 -.00000267  00000-0  00000+0 0  9991","TLE_LINE2":"2 00858   1.4031 302.4856 0005267 258.4625 128.3781  1.00162700152827","LAUNCH_DATE":"1964-08-19","LAUNCH_SITE":"AIR FORCE EASTERN TEST RANGE","OWNER":"UNITED STATES OF AMERICA","ORBIT_TYPE":"Geosynchronous","OPERATIONAL_STATUS":"Nonoperational","satInfo":{"lng":15.010310461681671,"lat":-0.6373722502580536,"elevation":-9.19650936318396,"azimuth":299.9896895383183,"range":42708.11247555506,"height":35783.61162041722,"velocity":3.075595192469033},"x":65,"y":-250,"dx":2.970653534050295,"dy":0.796557197301688,"maxAlt":257,"minAlt":256},{"OBJECT_ID":"1965-028A","OBJECT_NAME":"INTELSAT 1-F1","NORAD_CAT_ID":"1317","OBJECT_TYPE":"PAYLOAD","PERIOD":"1436.800","INCLINATION":"1.2081","APOGEE":"35826.922","PERIGEE":"35773.794","ECCENTRICITY":"0.0006298","MEAN_MOTION":"1.00222716","TLE_LINE1":"1 01317U 65028A   16236.20629980 -.00000306  00000-0  00000+0 0  9996","TLE_LINE2":"2 01317   1.2081 305.7882 0006298 209.5610 192.0744  1.00222716 91241","LAUNCH_DATE":"1965-04-06","LAUNCH_SITE":"AIR FORCE EASTERN TEST RANGE","OWNER":"INTERNATIONAL TELECOMMUNICATIONS SATELLITE ORGANIZATION (INTELSAT)","ORBIT_TYPE":"Geosynchronous","OPERATIONAL_STATUS":"Nonoperational","satInfo":{"lng":-64.22437604578144,"lat":-0.21545457761095882,"elevation":-8.784307892583865,"azimuth":19.22437604578144,"range":42664.49503801272,"height":35786.21173179451,"velocity":3.0753134857844424},"x":-234,"y":-114,"dx":1.3372939996844455,"dy":-2.769331651185108,"maxAlt":257,"minAlt":256},{"OBJECT_ID":"1966-053H","OBJECT_NAME":"OPS 9317 (IDSCS 7)","NORAD_CAT_ID":"2221","OBJECT_TYPE":"PAYLOAD","PERIOD":"1347.437","INCLINATION":"1.917","APOGEE":"34355.792","PERIGEE":"33709.887","ECCENTRICITY":"0.0079917","MEAN_MOTION":"1.06869499","TLE_LINE1":"1 02221U 66053H   16238.70761454 -.00000098  00000-0  00000+0 0  9998","TLE_LINE2":"2 02221   1.9170  54.7666 0079917  92.4192 210.7794  1.06869499195682","LAUNCH_DATE":"1966-06-16","LAUNCH_SITE":"AIR FORCE EASTERN TEST RANGE","OWNER":"UNITED STATES OF AMERICA","ORBIT_TYPE":"Unclassified","OPERATIONAL_STATUS":"Nonoperational","satInfo":{"lng":104.9719299845898,"lat":-3.58714688712128,"elevation":-12.382517864488921,"azimuth":210.02807001541015,"range":41476.47130463619,"height":34212.941463506206,"velocity":3.126723619087159},"x":237,"y":62,"dx":-0.8077758937789266,"dy":3.020579198694707,"maxAlt":246,"minAlt":241},{"OBJECT_ID":"1966-053J","OBJECT_NAME":"TITAN 3C TRANSTAGE R/B","NORAD_CAT_ID":"2222","OBJECT_TYPE":"ROCKET BODY","PERIOD":"1349.323","INCLINATION":"1.7907","APOGEE":"34723.712","PERIGEE":"33417.358","ECCENTRICITY":"0.0161483","MEAN_MOTION":"1.06720139","TLE_LINE1":"1 02222U 66053J   16239.41449384 -.00000104  00000-0  00000+0 0  9991","TLE_LINE2":"2 02222   1.7907  55.3533 0161483  87.1735 143.7467  1.06720139 92273","LAUNCH_DATE":"1966-06-16","LAUNCH_SITE":"AIR FORCE EASTERN TEST RANGE","OWNER":"UNITED STATES OF AMERICA","ORBIT_TYPE":"Unclassified","OPERATIONAL_STATUS":"N/A, derelict rocket body","satInfo":{"lng":-137.373785920567,"lat":1.0572526786316905,"elevation":-7.850718861306614,"azimuth":92.373785920567,"range":41052.092098251844,"height":34296.10403544719,"velocity":3.121758467333888},"x":-169,"y":180,"dx":-2.2969503102376607,"dy":-2.1140944162146442,"maxAlt":249,"minAlt":239},{"OBJECT_ID":"1967-003E","OBJECT_NAME":"OPS 9325 (IDSCS 12)","NORAD_CAT_ID":"2652","OBJECT_TYPE":"PAYLOAD","PERIOD":"1334.037","INCLINATION":"1.9597","APOGEE":"33913.350","PERIGEE":"33615.588","ECCENTRICITY":"0.0037088","MEAN_MOTION":"1.07942991","TLE_LINE1":"1 02652U 67003E   16238.37320199 -.00000099  00000-0  00000+0 0  9993","TLE_LINE2":"2 02652   1.9597  52.0302 0037088   6.9099 250.9284  1.07942991101418","LAUNCH_DATE":"1967-01-18","LAUNCH_SITE":"AIR FORCE EASTERN TEST RANGE","OWNER":"UNITED STATES OF AMERICA","ORBIT_TYPE":"Unclassified","OPERATIONAL_STATUS":"Nonoperational","satInfo":{"lng":-46.27487221956323,"lat":3.328327764607701,"elevation":-5.756268412344534,"azimuth":1.2748722195632056,"range":40210.080742032274,"height":33696.71151538535,"velocity":3.15650037085134},"x":-177,"y":-169,"dx":2.1817711968575417,"dy":-2.2810894405409576,"maxAlt":243,"minAlt":241},{"OBJECT_ID":"1967-003F","OBJECT_NAME":"OPS 9326 (IDSCS 13)","NORAD_CAT_ID":"2653","OBJECT_TYPE":"PAYLOAD","PERIOD":"1336.447","INCLINATION":"1.8775","APOGEE":"33981.920","PERIGEE":"33643.681","ECCENTRICITY":"0.0042079","MEAN_MOTION":"1.0774834","TLE_LINE1":"1  2653U 67003F   16238.79146571 -.00000080 +00000-0 +00000-0 0  9991","TLE_LINE2":"2  2653 001.8775 049.9699 0042079 352.4148 004.0194 01.07748340094084","LAUNCH_DATE":"1967-01-18","LAUNCH_SITE":"AIR FORCE EASTERN TEST RANGE","OWNER":"UNITED STATES OF AMERICA","ORBIT_TYPE":"Unclassified","OPERATIONAL_STATUS":"Nonoperational","satInfo":{"lng":162.29311622116438,"lat":-2.091251163247735,"elevation":-11.032894983491788,"azimuth":152.7068837788356,"range":40863.38541785477,"height":33756.692096996034,"velocity":3.1536790380464046},"x":73,"y":230,"dx":-3.0042733247260642,"dy":0.9591836452696084,"maxAlt":243,"minAlt":241},{"OBJECT_ID":"1967-003G","OBJECT_NAME":"OPS 9327 (IDSCS 14)","NORAD_CAT_ID":"2654","OBJECT_TYPE":"PAYLOAD","PERIOD":"1339.390","INCLINATION":"1.7686","APOGEE":"34080.865","PERIGEE":"33662.717","ECCENTRICITY":"0.0051944","MEAN_MOTION":"1.07511551","TLE_LINE1":"1 02654U 67003G   16238.63742149 -.00000129  00000-0  00000+0 0  9991","TLE_LINE2":"2 02654   1.7686  49.6125 0051944 337.9923 282.7105  1.07511551101006","LAUNCH_DATE":"1967-01-18","LAUNCH_SITE":"AIR FORCE EASTERN TEST RANGE","OWNER":"UNITED STATES OF AMERICA","ORBIT_TYPE":"Unclassified","OPERATIONAL_STATUS":"Nonoperational","satInfo":{"lng":-138.68430638531018,"lat":1.2672767370023008,"elevation":-7.786023177441983,"azimuth":93.68430638531017,"range":40396.45424301473,"height":33655.680690737114,"velocity":3.1639112165476595},"x":-161,"y":181,"dx":-2.376360964135004,"dy":-2.088837656289125,"maxAlt":244,"minAlt":241},{"OBJECT_ID":"1967-003H","OBJECT_NAME":"OPS 9328 (IDSCS 15)","NORAD_CAT_ID":"2655","OBJECT_TYPE":"PAYLOAD","PERIOD":"1342.908","INCLINATION":"1.655","APOGEE":"34206.209","PERIGEE":"33678.246","ECCENTRICITY":"0.0065471","MEAN_MOTION":"1.07229953","TLE_LINE1":"1  2655U 67003H   16238.58920265 -.00000113 +00000-0 +00000-0 0  9997","TLE_LINE2":"2  2655 001.6550 046.4400 0065471 329.2350 288.8612 01.07229953100781","LAUNCH_DATE":"1967-01-18","LAUNCH_SITE":"AIR FORCE EASTERN TEST RANGE","OWNER":"UNITED STATES OF AMERICA","ORBIT_TYPE":"Unclassified","OPERATIONAL_STATUS":"Nonoperational","satInfo":{"lng":148.07248407798912,"lat":-2.343515180100049,"elevation":-11.266060037755537,"azimuth":166.92751592201088,"range":40941.95349892457,"height":33808.46319841183,"velocity":3.154675083046922},"x":127,"y":205,"dx":-2.6774289299428604,"dy":1.6683372574818722,"maxAlt":245,"minAlt":241},{"OBJECT_ID":"1968-050A","OBJECT_NAME":"OPS 9341 (IDSCS 20)","NORAD_CAT_ID":"3284","OBJECT_TYPE":"PAYLOAD","PERIOD":"1335.132","INCLINATION":"1.1283","APOGEE":"33844.886","PERIGEE":"33727.991","ECCENTRICITY":"0.0014552","MEAN_MOTION":"1.07854435","TLE_LINE1":"1 03284U 68050A   16238.36467490 -.00000116  00000-0  00000+0 0  9993","TLE_LINE2":"2 03284   1.1283  13.1313 0014552 123.0153 186.8308  1.07854435 96307","LAUNCH_DATE":"1968-06-13","LAUNCH_SITE":"AIR FORCE EASTERN TEST RANGE","OWNER":"UNITED STATES OF AMERICA","ORBIT_TYPE":"Unclassified","OPERATIONAL_STATUS":"Nonoperational","satInfo":{"lng":-38.68350751110365,"lat":0.5315911863024989,"elevation":-8.488089699531947,"azimuth":353.6835075111037,"range":40550.448785955705,"height":33729.869621768856,"velocity":3.1547545643569928},"x":-153,"y":-191,"dx":2.46263406463992,"dy":-1.971778340738721,"maxAlt":242,"minAlt":242},{"OBJECT_ID":"1968-050B","OBJECT_NAME":"OPS 9342 (IDSCS 21)","NORAD_CAT_ID":"3285","OBJECT_TYPE":"PAYLOAD","PERIOD":"1335.578","INCLINATION":"1.1163","APOGEE":"33861.163","PERIGEE":"33729.602","ECCENTRICITY":"0.0016374","MEAN_MOTION":"1.0781842","TLE_LINE1":"1  3285U 68050B   16238.28024147 -.00000076 +00000-0 +00000-0 0  9999","TLE_LINE2":"2  3285 001.1163 014.1144 0016374 121.6455 091.8458 01.07818420189534","LAUNCH_DATE":"1968-06-13","LAUNCH_SITE":"AIR FORCE EASTERN TEST RANGE","OWNER":"UNITED STATES OF AMERICA","ORBIT_TYPE":"Unclassified","OPERATIONAL_STATUS":"Nonoperational","satInfo":{"lng":113.08826897781377,"lat":-1.167001842178366,"elevation":-10.116254305374964,"azimuth":201.91173102218622,"range":40852.087671218855,"height":33847.17393384618,"velocity":3.1458933367651793},"x":223,"y":94,"dx":-1.2336582326512526,"dy":2.893912965400885,"maxAlt":242,"minAlt":242},{"OBJECT_ID":"1968-050C","OBJECT_NAME":"OPS 9343 (IDSCS 22)","NORAD_CAT_ID":"3286","OBJECT_TYPE":"PAYLOAD","PERIOD":"1336.331","INCLINATION":"1.1078","APOGEE":"33890.399","PERIGEE":"33730.561","ECCENTRICITY":"0.0019886","MEAN_MOTION":"1.07757669","TLE_LINE1":"1  3286U 68050C   16238.27210199 -.00000110 +00000-0 +00000-0 0  9992","TLE_LINE2":"2  3286 001.1078 012.6862 0019886 119.0809 151.7313 01.07757669008842","LAUNCH_DATE":"1968-06-13","LAUNCH_SITE":"AIR FORCE EASTERN TEST RANGE","OWNER":"UNITED STATES OF AMERICA","ORBIT_TYPE":"Unclassified","OPERATIONAL_STATUS":"Nonoperational","satInfo":{"lng":-82.90675823762909,"lat":1.3194882665087126,"elevation":-7.712619319254466,"azimuth":37.9067582376291,"range":40489.86322714556,"height":33756.0722566807,"velocity":3.153630708697506},"x":-243,"y":-31,"dx":0.3894242805834718,"dy":-3.1294944282634507,"maxAlt":243,"minAlt":242}]